[{"OBJECT_NAME":"STARLINK-3574","OBJECT_ID":"2022-022Y","EPOCH":"2026-03-09T05:07:07.872384","MEAN_MOTION":15.0884531,"ECCENTRICITY":0.00015533,"INCLINATION":53.2193,"RA_OF_ASC_NODE":11.2598,"ARG_OF_PERICENTER":100.2689,"MEAN_ANOMALY":259.8478,"EPHEMERIS_TYPE":0,"CLASSIFICATION_TYPE":"U","NORAD_CAT_ID":51874,"ELEMENT_SET_NO":999,"REV_AT_EPOCH":22303,"BSTAR":-8.6972372e-5,"MEAN_MOTION_DOT":-1.672e-5,"MEAN_MOTION_DDOT":0},{"OBJECT_NAME":"CZ-6A DEB","OBJECT_ID":"2022-151KB","EPOCH":"2026-03-09T19:20:41.637408","MEAN_MOTION":14.94061736,"ECCENTRICITY":0.0071589,"INCLINATION":98.7004,"RA_OF_ASC_NODE":166.2159,"ARG_OF_PERICENTER":166.3306,"MEAN_ANOMALY":193.9872,"EPHEMERIS_TYPE":0,"CLASSIFICATION_TYPE":"U","NORAD_CAT_ID":54523,"ELEMENT_SET_NO":999,"REV_AT_EPOCH":17710,"BSTAR":0.0044467837,"MEAN_MOTION_DOT":0.00050189,"MEAN_MOTION_DDOT":0}]
